{
"type": "FeatureCollection",
"name": "Localités",
"crs": { "type": "name", "properties": { "name": "urn:ogc:def:crs:EPSG::32630" } },
"features": [
{ "type": "Feature", "properties": { "fid": 1, "nom_tdr": "Taboth", "nom_canonique": "Taboth", "zone_tdr": "Jacqueville", "source": "Mapcarta / OpenStreetMap / GeoNames", "source_id": "GeoNames 12687890", "niveau_confiance": "élevé", "note": "", "id": 1 }, "geometry": { "type": "Point", "coordinates": [ 352740.481167973135598, 581288.986917658010498 ] } },
{ "type": "Feature", "properties": { "fid": 2, "nom_tdr": "Attoutou B", "nom_canonique": "Attoutou A / Attoutou", "zone_tdr": "Jacqueville", "source": "Mapcarta / OpenStreetMap / GeoNames", "source_id": "OSM node 2789987667; GeoNames 2292559", "niveau_confiance": "moyen", "note": "La source cartographique consultée donne « Attoutou B » comme alias d’Attoutou A/Attoutou. À valider au cadrage ou sur le terrain.", "id": 2 }, "geometry": { "type": "Point", "coordinates": [ 325752.908978488470893, 577331.981224211165681 ] } },
{ "type": "Feature", "properties": { "fid": 3, "nom_tdr": "Koko", "nom_canonique": "Koko (Kokoh)", "zone_tdr": "Jacqueville", "source": "Mapcarta / OpenStreetMap", "source_id": "", "niveau_confiance": "élevé", "note": "", "id": 3 }, "geometry": { "type": "Point", "coordinates": [ 345445.08717904885998, 581374.538472726242617 ] } },
{ "type": "Feature", "properties": { "fid": 4, "nom_tdr": "Tefredji", "nom_canonique": "Téfredji", "zone_tdr": "Jacqueville", "source": "Mapcarta / OpenStreetMap / GeoNames", "source_id": "OSM node 2988080601; GeoNames 2280876", "niveau_confiance": "élevé", "note": "", "id": 4 }, "geometry": { "type": "Point", "coordinates": [ 311796.923434987082146, 576661.577524791588075 ] } },
{ "type": "Feature", "properties": { "fid": 5, "nom_tdr": "Tiémien", "nom_canonique": "Tiémé", "zone_tdr": "Jacqueville", "source": "Mapcarta / OpenStreetMap / GeoNames", "source_id": "OSM node 2988080600; GeoNames 2280709", "niveau_confiance": "élevé", "note": "« Tiémien » figure parmi les variantes du nom Tiémé dans la source cartographique.", "id": 5 }, "geometry": { "type": "Point", "coordinates": [ 317620.709103224915452, 577105.056496052420698 ] } },
{ "type": "Feature", "properties": { "fid": 6, "nom_tdr": "Grand Jack", "nom_canonique": "Grand-Jacques", "zone_tdr": "Jacqueville", "source": "Mapcarta / OpenStreetMap", "source_id": "", "niveau_confiance": "élevé", "note": "Grand Jack / Grand-Jack figure parmi les variantes du nom Grand-Jacques.", "id": 6 }, "geometry": { "type": "Point", "coordinates": [ 337349.858346725464799, 574621.412918467540294 ] } },
{ "type": "Feature", "properties": { "fid": 7, "nom_tdr": "Quartier France", "nom_canonique": "Quartier France", "zone_tdr": "Grand-Bassam", "source": "Mapcarta / OpenStreetMap", "source_id": "OSM node 538899295", "niveau_confiance": "élevé", "note": "", "id": 7 }, "geometry": { "type": "Point", "coordinates": [ 418345.109047900536098, 574431.622355176019482 ] } },
{ "type": "Feature", "properties": { "fid": 8, "nom_tdr": "Mondoukou", "nom_canonique": "Mondoukou", "zone_tdr": "Grand-Bassam", "source": "Mapcarta / OpenStreetMap / GeoNames", "source_id": "OSM node 4743914966; GeoNames 8031862", "niveau_confiance": "élevé", "note": "", "id": 8 }, "geometry": { "type": "Point", "coordinates": [ 424547.069325086660683, 573362.316217044368386 ] } },
{ "type": "Feature", "properties": { "fid": 9, "nom_tdr": "Vitré 2", "nom_canonique": "Vitré Deux (Vitré II)", "zone_tdr": "Grand-Bassam", "source": "Mapcarta / OpenStreetMap", "source_id": "", "niveau_confiance": "moyen", "note": "Le point correspond à la localité cartographiée comme Vitré Deux / Vitré II. À valider avec l’équipe projet avant une analyse foncière fine.", "id": 9 }, "geometry": { "type": "Point", "coordinates": [ 411324.403090021456592, 583453.305018382030539 ] } },
{ "type": "Feature", "properties": { "fid": 10, "nom_tdr": "Azuretti", "nom_canonique": "Azuretti", "zone_tdr": "Grand-Bassam", "source": "Mapcarta / OpenStreetMap", "source_id": "OSM node 11835364743", "niveau_confiance": "élevé", "note": "", "id": 10 }, "geometry": { "type": "Point", "coordinates": [ 413626.90620275301626, 575207.806529974099249 ] } }
]
}
