{
"type": "FeatureCollection",
"name": "Zone tampon localité",
"crs": { "type": "name", "properties": { "name": "urn:ogc:def:crs:EPSG::32630" } },
"features": [
{ "type": "Feature", "properties": { "fid": 1, "nom_tdr": "Taboth", "nom_canonique": "Taboth", "zone_tdr": "Jacqueville", "source": "Mapcarta / OpenStreetMap / GeoNames", "source_id": "GeoNames 12687890", "niveau_confiance": "élevé", "note": "", "id": 1 }, "geometry": { "type": "MultiPolygon", "coordinates": [ [ [ [ 360240.481167973135598, 581288.986917658010498 ], [ 359873.405040186771657, 578971.359459845931269 ], [ 358808.108625785214826, 576880.597525464487262 ], [ 357148.870560166658834, 575221.359459845931269 ], [ 355058.108625785214826, 574156.063045444316231 ], [ 352740.481167973135598, 573788.986917658010498 ], [ 350422.85371016105637, 574156.063045444316231 ], [ 348332.091775779612362, 575221.359459845931269 ], [ 346672.85371016105637, 576880.597525464487262 ], [ 345607.557295759499539, 578971.359459845931269 ], [ 345240.481167973135598, 581288.986917658010498 ], [ 345607.557295759499539, 583606.614375470089726 ], [ 346672.85371016105637, 585697.376309851533733 ], [ 348332.091775779612362, 587356.614375470089726 ], [ 350422.85371016105637, 588421.910789871704765 ], [ 352740.481167973135598, 588788.986917658010498 ], [ 355058.108625785214826, 588421.910789871704765 ], [ 357148.870560166658834, 587356.614375470089726 ], [ 358808.108625785214826, 585697.376309851533733 ], [ 359873.405040186771657, 583606.614375470089726 ], [ 360240.481167973135598, 581288.986917658010498 ] ] ] ] } },
{ "type": "Feature", "properties": { "fid": 2, "nom_tdr": "Attoutou B", "nom_canonique": "Attoutou A / Attoutou", "zone_tdr": "Jacqueville", "source": "Mapcarta / OpenStreetMap / GeoNames", "source_id": "OSM node 2789987667; GeoNames 2292559", "niveau_confiance": "moyen", "note": "La source cartographique consultée donne « Attoutou B » comme alias d’Attoutou A/Attoutou. À valider au cadrage ou sur le terrain.", "id": 2 }, "geometry": { "type": "MultiPolygon", "coordinates": [ [ [ [ 333252.908978488470893, 577331.981224211165681 ], [ 332885.832850702106953, 575014.353766399086453 ], [ 331820.536436300550122, 572923.591832017642446 ], [ 330161.298370681994129, 571264.353766399086453 ], [ 328070.536436300550122, 570199.057351997471415 ], [ 325752.908978488470893, 569831.981224211165681 ], [ 323435.281520676391665, 570199.057351997471415 ], [ 321344.519586294947658, 571264.353766399086453 ], [ 319685.281520676391665, 572923.591832017642446 ], [ 318619.985106274834834, 575014.353766399086453 ], [ 318252.908978488470893, 577331.981224211165681 ], [ 318619.985106274834834, 579649.60868202324491 ], [ 319685.281520676391665, 581740.370616404688917 ], [ 321344.519586294947658, 583399.60868202324491 ], [ 323435.281520676391665, 584464.905096424859948 ], [ 325752.908978488470893, 584831.981224211165681 ], [ 328070.536436300550122, 584464.905096424859948 ], [ 330161.298370681994129, 583399.60868202324491 ], [ 331820.536436300550122, 581740.370616404688917 ], [ 332885.832850702106953, 579649.60868202324491 ], [ 333252.908978488470893, 577331.981224211165681 ] ] ] ] } },
{ "type": "Feature", "properties": { "fid": 3, "nom_tdr": "Koko", "nom_canonique": "Koko (Kokoh)", "zone_tdr": "Jacqueville", "source": "Mapcarta / OpenStreetMap", "source_id": "", "niveau_confiance": "élevé", "note": "", "id": 3 }, "geometry": { "type": "MultiPolygon", "coordinates": [ [ [ [ 352945.08717904885998, 581374.538472726242617 ], [ 352578.011051262496039, 579056.911014914163388 ], [ 351512.714636860939208, 576966.149080532719381 ], [ 349853.476571242383216, 575306.911014914163388 ], [ 347762.714636860939208, 574241.61460051254835 ], [ 345445.08717904885998, 573874.538472726242617 ], [ 343127.459721236780751, 574241.61460051254835 ], [ 341036.697786855336744, 575306.911014914163388 ], [ 339377.459721236780751, 576966.149080532719381 ], [ 338312.163306835223921, 579056.911014914163388 ], [ 337945.08717904885998, 581374.538472726242617 ], [ 338312.163306835223921, 583692.165930538321845 ], [ 339377.459721236780751, 585782.927864919765852 ], [ 341036.697786855336744, 587442.165930538321845 ], [ 343127.459721236780751, 588507.462344939936884 ], [ 345445.08717904885998, 588874.538472726242617 ], [ 347762.714636860939208, 588507.462344939936884 ], [ 349853.476571242383216, 587442.165930538321845 ], [ 351512.714636860939208, 585782.927864919765852 ], [ 352578.011051262496039, 583692.165930538321845 ], [ 352945.08717904885998, 581374.538472726242617 ] ] ] ] } },
{ "type": "Feature", "properties": { "fid": 4, "nom_tdr": "Tefredji", "nom_canonique": "Téfredji", "zone_tdr": "Jacqueville", "source": "Mapcarta / OpenStreetMap / GeoNames", "source_id": "OSM node 2988080601; GeoNames 2280876", "niveau_confiance": "élevé", "note": "", "id": 4 }, "geometry": { "type": "MultiPolygon", "coordinates": [ [ [ [ 319296.923434987082146, 576661.577524791588075 ], [ 318929.847307200718205, 574343.950066979508847 ], [ 317864.550892799161375, 572253.18813259806484 ], [ 316205.312827180605382, 570593.950066979508847 ], [ 314114.550892799161375, 569528.653652577893808 ], [ 311796.923434987082146, 569161.577524791588075 ], [ 309479.295977175002918, 569528.653652577893808 ], [ 307388.53404279355891, 570593.950066979508847 ], [ 305729.295977175002918, 572253.18813259806484 ], [ 304663.999562773446087, 574343.950066979508847 ], [ 304296.923434987082146, 576661.577524791588075 ], [ 304663.999562773446087, 578979.204982603667304 ], [ 305729.295977175002918, 581069.966916985111311 ], [ 307388.53404279355891, 582729.204982603667304 ], [ 309479.295977175002918, 583794.501397005282342 ], [ 311796.923434987082146, 584161.577524791588075 ], [ 314114.550892799161375, 583794.501397005282342 ], [ 316205.312827180605382, 582729.204982603667304 ], [ 317864.550892799161375, 581069.966916985111311 ], [ 318929.847307200718205, 578979.204982603667304 ], [ 319296.923434987082146, 576661.577524791588075 ] ] ] ] } },
{ "type": "Feature", "properties": { "fid": 5, "nom_tdr": "Tiémien", "nom_canonique": "Tiémé", "zone_tdr": "Jacqueville", "source": "Mapcarta / OpenStreetMap / GeoNames", "source_id": "OSM node 2988080600; GeoNames 2280709", "niveau_confiance": "élevé", "note": "« Tiémien » figure parmi les variantes du nom Tiémé dans la source cartographique.", "id": 5 }, "geometry": { "type": "MultiPolygon", "coordinates": [ [ [ [ 325120.709103224915452, 577105.056496052420698 ], [ 324753.632975438551512, 574787.42903824034147 ], [ 323688.336561036994681, 572696.667103858897462 ], [ 322029.098495418438688, 571037.42903824034147 ], [ 319938.336561036994681, 569972.132623838726431 ], [ 317620.709103224915452, 569605.056496052420698 ], [ 315303.081645412836224, 569972.132623838726431 ], [ 313212.319711031392217, 571037.42903824034147 ], [ 311553.081645412836224, 572696.667103858897462 ], [ 310487.785231011279393, 574787.42903824034147 ], [ 310120.709103224915452, 577105.056496052420698 ], [ 310487.785231011279393, 579422.683953864499927 ], [ 311553.081645412836224, 581513.445888245943934 ], [ 313212.319711031392217, 583172.683953864499927 ], [ 315303.081645412836224, 584237.980368266114965 ], [ 317620.709103224915452, 584605.056496052420698 ], [ 319938.336561036994681, 584237.980368266114965 ], [ 322029.098495418438688, 583172.683953864499927 ], [ 323688.336561036994681, 581513.445888245943934 ], [ 324753.632975438551512, 579422.683953864499927 ], [ 325120.709103224915452, 577105.056496052420698 ] ] ] ] } },
{ "type": "Feature", "properties": { "fid": 6, "nom_tdr": "Grand Jack", "nom_canonique": "Grand-Jacques", "zone_tdr": "Jacqueville", "source": "Mapcarta / OpenStreetMap", "source_id": "", "niveau_confiance": "élevé", "note": "Grand Jack / Grand-Jack figure parmi les variantes du nom Grand-Jacques.", "id": 6 }, "geometry": { "type": "MultiPolygon", "coordinates": [ [ [ [ 344849.858346725464799, 574621.412918467540294 ], [ 344482.782218939100858, 572303.785460655461065 ], [ 343417.485804537544027, 570213.023526274017058 ], [ 341758.247738918988034, 568553.785460655461065 ], [ 339667.485804537544027, 567488.489046253846027 ], [ 337349.858346725464799, 567121.412918467540294 ], [ 335032.23088891338557, 567488.489046253846027 ], [ 332941.468954531941563, 568553.785460655461065 ], [ 331282.23088891338557, 570213.023526274017058 ], [ 330216.934474511828739, 572303.785460655461065 ], [ 329849.858346725464799, 574621.412918467540294 ], [ 330216.934474511828739, 576939.040376279619522 ], [ 331282.23088891338557, 579029.80231066106353 ], [ 332941.468954531941563, 580689.040376279619522 ], [ 335032.23088891338557, 581754.336790681234561 ], [ 337349.858346725464799, 582121.412918467540294 ], [ 339667.485804537544027, 581754.336790681234561 ], [ 341758.247738918988034, 580689.040376279619522 ], [ 343417.485804537544027, 579029.80231066106353 ], [ 344482.782218939100858, 576939.040376279619522 ], [ 344849.858346725464799, 574621.412918467540294 ] ] ] ] } },
{ "type": "Feature", "properties": { "fid": 7, "nom_tdr": "Quartier France", "nom_canonique": "Quartier France", "zone_tdr": "Grand-Bassam", "source": "Mapcarta / OpenStreetMap", "source_id": "OSM node 538899295", "niveau_confiance": "élevé", "note": "", "id": 7 }, "geometry": { "type": "MultiPolygon", "coordinates": [ [ [ [ 425845.109047900536098, 574431.622355176019482 ], [ 425478.032920114172157, 572113.994897363940254 ], [ 424412.736505712615326, 570023.232962982496247 ], [ 422753.498440094059333, 568363.994897363940254 ], [ 420662.736505712615326, 567298.698482962325215 ], [ 418345.109047900536098, 566931.622355176019482 ], [ 416027.481590088456869, 567298.698482962325215 ], [ 413936.719655707012862, 568363.994897363940254 ], [ 412277.481590088456869, 570023.232962982496247 ], [ 411212.185175686900038, 572113.994897363940254 ], [ 410845.109047900536098, 574431.622355176019482 ], [ 411212.185175686900038, 576749.249812988098711 ], [ 412277.481590088456869, 578840.011747369542718 ], [ 413936.719655707012862, 580499.249812988098711 ], [ 416027.481590088456869, 581564.546227389713749 ], [ 418345.109047900536098, 581931.622355176019482 ], [ 420662.736505712615326, 581564.546227389713749 ], [ 422753.498440094059333, 580499.249812988098711 ], [ 424412.736505712615326, 578840.011747369542718 ], [ 425478.032920114172157, 576749.249812988098711 ], [ 425845.109047900536098, 574431.622355176019482 ] ] ] ] } },
{ "type": "Feature", "properties": { "fid": 8, "nom_tdr": "Mondoukou", "nom_canonique": "Mondoukou", "zone_tdr": "Grand-Bassam", "source": "Mapcarta / OpenStreetMap / GeoNames", "source_id": "OSM node 4743914966; GeoNames 8031862", "niveau_confiance": "élevé", "note": "", "id": 8 }, "geometry": { "type": "MultiPolygon", "coordinates": [ [ [ [ 432047.069325086660683, 573362.316217044368386 ], [ 431679.993197300296742, 571044.688759232289158 ], [ 430614.696782898739912, 568953.926824850845151 ], [ 428955.458717280183919, 567294.688759232289158 ], [ 426864.696782898739912, 566229.392344830674119 ], [ 424547.069325086660683, 565862.316217044368386 ], [ 422229.441867274581455, 566229.392344830674119 ], [ 420138.679932893137448, 567294.688759232289158 ], [ 418479.441867274581455, 568953.926824850845151 ], [ 417414.145452873024624, 571044.688759232289158 ], [ 417047.069325086660683, 573362.316217044368386 ], [ 417414.145452873024624, 575679.943674856447615 ], [ 418479.441867274581455, 577770.705609237891622 ], [ 420138.679932893137448, 579429.943674856447615 ], [ 422229.441867274581455, 580495.240089258062653 ], [ 424547.069325086660683, 580862.316217044368386 ], [ 426864.696782898739912, 580495.240089258062653 ], [ 428955.458717280183919, 579429.943674856447615 ], [ 430614.696782898739912, 577770.705609237891622 ], [ 431679.993197300296742, 575679.943674856447615 ], [ 432047.069325086660683, 573362.316217044368386 ] ] ] ] } },
{ "type": "Feature", "properties": { "fid": 9, "nom_tdr": "Vitré 2", "nom_canonique": "Vitré Deux (Vitré II)", "zone_tdr": "Grand-Bassam", "source": "Mapcarta / OpenStreetMap", "source_id": "", "niveau_confiance": "moyen", "note": "Le point correspond à la localité cartographiée comme Vitré Deux / Vitré II. À valider avec l’équipe projet avant une analyse foncière fine.", "id": 9 }, "geometry": { "type": "MultiPolygon", "coordinates": [ [ [ [ 418824.403090021456592, 583453.305018382030539 ], [ 418457.326962235092651, 581135.677560569951311 ], [ 417392.03054783353582, 579044.915626188507304 ], [ 415732.792482214979827, 577385.677560569951311 ], [ 413642.03054783353582, 576320.381146168336272 ], [ 411324.403090021456592, 575953.305018382030539 ], [ 409006.775632209377363, 576320.381146168336272 ], [ 406916.013697827933356, 577385.677560569951311 ], [ 405256.775632209377363, 579044.915626188507304 ], [ 404191.479217807820532, 581135.677560569951311 ], [ 403824.403090021456592, 583453.305018382030539 ], [ 404191.479217807820532, 585770.932476194109768 ], [ 405256.775632209377363, 587861.694410575553775 ], [ 406916.013697827933356, 589520.932476194109768 ], [ 409006.775632209377363, 590586.228890595724806 ], [ 411324.403090021456592, 590953.305018382030539 ], [ 413642.03054783353582, 590586.228890595724806 ], [ 415732.792482214979827, 589520.932476194109768 ], [ 417392.03054783353582, 587861.694410575553775 ], [ 418457.326962235092651, 585770.932476194109768 ], [ 418824.403090021456592, 583453.305018382030539 ] ] ] ] } },
{ "type": "Feature", "properties": { "fid": 10, "nom_tdr": "Azuretti", "nom_canonique": "Azuretti", "zone_tdr": "Grand-Bassam", "source": "Mapcarta / OpenStreetMap", "source_id": "OSM node 11835364743", "niveau_confiance": "élevé", "note": "", "id": 10 }, "geometry": { "type": "MultiPolygon", "coordinates": [ [ [ [ 421126.90620275301626, 575207.806529974099249 ], [ 420759.830074966652319, 572890.17907216202002 ], [ 419694.533660565095488, 570799.417137780576013 ], [ 418035.295594946539495, 569140.17907216202002 ], [ 415944.533660565095488, 568074.882657760404982 ], [ 413626.90620275301626, 567707.806529974099249 ], [ 411309.278744940937031, 568074.882657760404982 ], [ 409218.516810559493024, 569140.17907216202002 ], [ 407559.278744940937031, 570799.417137780576013 ], [ 406493.9823305393802, 572890.17907216202002 ], [ 406126.90620275301626, 575207.806529974099249 ], [ 406493.9823305393802, 577525.433987786178477 ], [ 407559.278744940937031, 579616.195922167622484 ], [ 409218.516810559493024, 581275.433987786178477 ], [ 411309.278744940937031, 582340.730402187793516 ], [ 413626.90620275301626, 582707.806529974099249 ], [ 415944.533660565095488, 582340.730402187793516 ], [ 418035.295594946539495, 581275.433987786178477 ], [ 419694.533660565095488, 579616.195922167622484 ], [ 420759.830074966652319, 577525.433987786178477 ], [ 421126.90620275301626, 575207.806529974099249 ] ] ] ] } }
]
}
