{
"type": "FeatureCollection",
"name": "données_tracées_track",
"crs": { "type": "name", "properties": { "name": "urn:ogc:def:crs:OGC:1.3:CRS84" } },
"features": [
{ "type": "Feature", "properties": { "name": "2023-01-11 16:55:07WILF", "cmt": null, "desc": null, "src": null, "link1_href": null, "link1_text": null, "link1_type": null, "link2_href": null, "link2_text": null, "link2_type": null, "number": null, "type": null }, "geometry": { "type": "MultiLineString", "coordinates": [ [ [ -2.7998491097, 8.0402820278 ], [ -2.7998483554, 8.0402829498 ], [ -2.7997460123, 8.040377078600001 ], [ -2.7997473534, 8.040395351100001 ], [ -2.7997880057, 8.040423262899999 ], [ -2.799814241, 8.040396357 ], [ -2.799877692, 8.040350005 ], [ -2.7999108005, 8.0403089337 ], [ -2.799862856, 8.0402469076 ], [ -2.7998524625, 8.040245818 ] ] ] } },
{ "type": "Feature", "properties": { "name": "2023-01-11 17:13:12YLIA", "cmt": null, "desc": null, "src": null, "link1_href": null, "link1_text": null, "link1_type": null, "link2_href": null, "link2_text": null, "link2_type": null, "number": null, "type": null }, "geometry": { "type": "MultiLineString", "coordinates": [ [ [ -2.8000272252, 8.0398847256 ], [ -2.8000325896, 8.039879361200001 ], [ -2.8002749942, 8.0397764314 ], [ -2.8005689476, 8.0396959651 ], [ -2.8008006234, 8.0396495294 ], [ -2.8009545989, 8.0395508744 ], [ -2.8008629847, 8.039301680399999 ], [ -2.8007157985, 8.039099844200001 ], [ -2.8005267866, 8.038996411499999 ], [ -2.8004934266, 8.039024658500001 ], [ -2.8003221005, 8.0391826574 ], [ -2.8000320867, 8.0394508783 ], [ -2.7997948788, 8.0396519601 ], [ -2.7998911031, 8.0398489349 ], [ -2.8000015765, 8.0399084464 ] ] ] } },
{ "type": "Feature", "properties": { "name": "2023-01-12 09:13:53", "cmt": null, "desc": null, "src": null, "link1_href": null, "link1_text": null, "link1_type": null, "link2_href": null, "link2_text": null, "link2_type": null, "number": null, "type": null }, "geometry": { "type": "MultiLineString", "coordinates": [ [ [ -2.7998699807, 8.040266856600001 ], [ -2.7998678852, 8.040273645899999 ], [ -2.7998830564, 8.040317650900001 ], [ -2.7999103814, 8.040347322800001 ], [ -2.7999248821, 8.0402704608 ], [ -2.799902251, 8.0402739812 ] ] ] } },
{ "type": "Feature", "properties": { "name": "H023-01-11 15:57:26", "cmt": null, "desc": null, "src": null, "link1_href": null, "link1_text": null, "link1_type": null, "link2_href": null, "link2_text": null, "link2_type": null, "number": null, "type": null }, "geometry": { "type": "MultiLineString", "coordinates": [ [ [ -2.7997807134, 8.040161579799999 ], [ -2.799808709, 8.040174907100001 ], [ -2.7998232935, 8.040165351700001 ] ] ] } }
]
}
